[
London WaterLoo:{
  "restaurant": [
    {
      "type": "restaurant",
      "name": "Carluccio's",
      "address": "The Balcony, London SE1 7LY, United Kingdom",
      "postcode": "SE1 7LY",
      "distance": "60m"
    },
    {
      "type": "restaurant",
      "name": "Natural Kitchen",
      "address": "Cab Road, London SE1 8SE, United Kingdom",
      "postcode": "SE1 8SE",
      "distance": "61m"
    },
    {
      "type": "restaurant",
      "name": "Wasabi",
      "address": "The Balcony, London SE1 7LY, United Kingdom",
      "postcode": "SE1 7LY",
      "distance": "62m"
    },
    {
      "type": "restaurant",
      "name": "La Barca",
      "address": "Lower Marsh, London SE1, United Kingdom",
      "postcode": "SE1",
      "distance": "115m"
    },
    {
      "type": "restaurant",
      "name": "Maries cafe",
      "address": "90 Lower Marsh, London SE1 7AB, United Kingdom",
      "postcode": "SE1 7AB",
      "distance": "116m"
    },
    {
      "type": "restaurant",
      "name": "Crust Bros",
      "address": "111 Waterloo Road, London SE1 8UL, United Kingdom",
      "postcode": "SE1 8UL",
      "distance": "127m"
    },
    {
      "type": "restaurant",
      "name": "Oseyo",
      "address": "158 Waterloo Road, London SE1 8SB, United Kingdom",
      "postcode": "SE1 8SB",
      "distance": "131m"
    },
    {
      "type": "restaurant",
      "name": "Gourmet Burger Kitchen",
      "address": "Waterloo Road, London SE1 8UL, United Kingdom",
      "postcode": "SE1 8UL",
      "distance": "133m"
    },
    {
      "type": "restaurant",
      "name": "Wahaca",
      "address": "119 Waterloo Road, London SE1 8UL, United Kingdom",
      "postcode": "SE1 8UL",
      "distance": "135m"
    },
    {
      "type": "restaurant",
      "name": "Greenport",
      "address": "157 Waterloo Road, London SE1 8SB, United Kingdom",
      "postcode": "SE1 8SB",
      "distance": "135m"
    },
    {
      "type": "restaurant",
      "name": "YO! Sushi",
      "address": "The Balcony, London SE1 7LY, United Kingdom",
      "postcode": "SE1 7LY",
      "distance": "141m"
    },
    {
      "type": "restaurant",
      "name": "Cubana",
      "address": "Lower Marsh, London SE1, United Kingdom",
      "postcode": "SE1",
      "distance": "145m"
    },
    {
      "type": "restaurant",
      "name": "Sports Bar & Grill",
      "address": "Station Approach, London SE1 7LY, United Kingdom",
      "postcode": "SE1 7LY",
      "distance": "156m"
    },
    {
      "type": "restaurant",
      "name": "Fishcotheque",
      "address": "79a Waterloo Road, London SE1 8UD, United Kingdom",
      "postcode": "SE1 8UD",
      "distance": "157m"
    },
    {
      "type": "restaurant",
      "name": "The Thames",
      "address": "79 Waterloo Road, London SE1 8UD, United Kingdom",
      "postcode": "SE1 8UD",
      "distance": "169m"
    },
    {
      "type": "restaurant",
      "name": "Po Cha",
      "address": "30 Lower Marsh, London SE1, United Kingdom",
      "postcode": "SE1",
      "distance": "169m"
    },
    {
      "type": "restaurant",
      "name": "Caprini",
      "address": "Waterloo Road, London SE1 8UD, United Kingdom",
      "postcode": "SE1 8UD",
      "distance": "173m"
    },
    {
      "type": "restaurant",
      "name": "Inshoku",
      "address": "24 Lower Marsh, London SE1 7RJ, United Kingdom",
      "postcode": "SE1 7RJ",
      "distance": "199m"
    }
  ],
  "supermarket": [
    {
      "type": "supermarket",
      "name": "Sainsbury's",
      "address": "101 Waterloo Road, London SE1 8UL, United Kingdom",
      "postcode": "SE1 8UL",
      "distance": "123m"
    },
    {
      "type": "supermarket",
      "name": "Greensmiths",
      "address": "27 Lower Marsh, London SE1 7RG, United Kingdom",
      "postcode": "SE1 7RG",
      "distance": "179m"
    }
  ]
},

Basingstoke: {
    "supermarket": [
        {
            "type": "supermarket",
            "name": "The Co-op",
            "address": "Kings Road shops, Basingstoke RG22 6DJ, United Kingdom",
            "postcode": "RG22 6DJ",
            "distance": "286m"
        },
        {
            "type": "supermarket",
            "name": "Morrisons",
            "address": "Worting Road, Basingstoke RG21 8BJ, United Kingdom",
            "postcode": "RG21 8BJ",
            "distance": "567m"
        },
        {
            "type": "supermarket",
            "name": "Lidl",
            "address": "West Ham Roundabout, Basingstoke RG22 6PE, United Kingdom",
            "postcode": "RG22 6PE",
            "distance": "834m"
        },
        {
            "type": "supermarket",
            "name": "Aldi",
            "address": "St Michael's Retail Park, Basingstoke RG22 4AN, United Kingdom",
            "postcode": "RG22 4AN",
            "distance": "931m"
        },
        {
            "type": "supermarket",
            "name": "Nisa",
            "address": "Stratton Road, Basingstoke RG21 3NY, United Kingdom",
            "postcode": "RG21 3NY",
            "distance": "1084m"
        }
    ],
    "tourism": [
        {
            "type": "tourism",
            "name": "Wrought Iron Gates",
            "address": "Attwood Close, Basingstoke RG21 8ZY, United Kingdom",
            "postcode": "RG21 8ZY",
            "distance": "448m"
        },
        {
            "type": "tourism",
            "name": "Sharks Fin",
            "address": "Churchill Way West, Basingstoke RG22 6PW, United Kingdom",
            "postcode": "RG22 6PW",
            "distance": "770m"
        },
        {
            "type": "tourism",
            "name": "iFLY",
            "address": "Euskirchen Way, Basingstoke RG22 6PJ, United Kingdom",
            "postcode": "RG22 6PJ",
            "distance": "983m"
        },
        {
            "type": "tourism",
            "name": "Planet Ice",
            "address": "Euskirchen Way, Basingstoke and Deane RG22 6PJ, United Kingdom",
            "postcode": "RG22 6PJ",
            "distance": "1084m"
        },
        {
            "type": "tourism",
            "name": "Viables Craft Centre",
            "address": "The Harrow Way, Basingstoke RG22 4BJ, United Kingdom",
            "postcode": "RG22 4BJ",
            "distance": "1351m"
        }
    ],
    "restaurant": [
        {
            "type": "restaurant",
            "name": "Nando's",
            "address": "Unit 8 Harrow Way, Basingstoke RG22 4AN, United Kingdom",
            "postcode": "RG22 4AN",
            "distance": "735m"
        },
        {
            "type": "restaurant",
            "name": "Spruce Goose",
            "address": "Worting Road, Basingstoke RG22 6PG, United Kingdom",
            "postcode": "RG22 6PG",
            "distance": "911m"
        },
        {
            "type": "restaurant",
            "name": "Pizza Hut",
            "address": "The Harrow Way, Basingstoke RG22 4BE, United Kingdom",
            "postcode": "RG22 4BE",
            "distance": "968m"
        },
        {
            "type": "restaurant",
            "name": "Pizza Express",
            "address": "Brighton Hill Roundabout, Basingstoke RG22 6HL, United Kingdom",
            "postcode": "RG22 6HL",
            "distance": "993m"
        },
        {
            "type": "restaurant",
            "name": "Little Frankie's",
            "address": "Euskirchen Way, Basingstoke RG22 6PG, United Kingdom",
            "postcode": "RG22 6PG",
            "distance": "1084m"
        },
        {
            "type": "restaurant",
            "name": "Stag And Hounds",
            "address": "Winchester Road, Basingstoke RG22 6HT, United Kingdom",
            "postcode": "RG22 6HT",
            "distance": "1121m"
        },
        {
            "type": "restaurant",
            "name": "Taste of India",
            "address": "22A Burnaby Close, Basingstoke and Deane RG22 6UJ, United Kingdom",
            "postcode": "RG22 6UJ",
            "distance": "1151m"
        },
        {
            "type": "restaurant",
            "name": "The Red Rose Tandoori Restaurant",
            "address": "7 Buckland Avenue, Basingstoke RG22 6JW, United Kingdom",
            "postcode": "RG22 6JW",
            "distance": "1191m"
        },
        {
            "type": "restaurant",
            "name": "Agra Balti House",
            "address": "34 Winchester Street, Basingstoke RG21 7EQ, United Kingdom",
            "postcode": "RG21 7EQ",
            "distance": "1321m"
        },
        {
            "type": "restaurant",
            "name": "AM Restaurant",
            "address": "Winchester Street, Basingstoke RG21 7ED, United Kingdom",
            "postcode": "RG21 7ED",
            "distance": "1376m"
        }
    ]
},

London St Pancras International: {
  "restaurant": [
    {
      "type": "restaurant",
      "name": "Yo Sushi",
      "address": "Euston Road, London NW1 2QS, United Kingdom",
      "postcode": "NW1 2QS",
      "distance": "64m"
    },
    {
      "type": "restaurant",
      "name": "Searcy's",
      "address": "Euston Road, London NW1 2QS, United Kingdom",
      "postcode": "NW1 2QS",
      "distance": "97m"
    },
    {
      "type": "restaurant",
      "name": "German Gymnasium",
      "address": "1 King's Boulevard, London N1C 4BU, United Kingdom",
      "postcode": "N1C 4BU",
      "distance": "97m"
    },
    {
      "type": "restaurant",
      "name": "Granger & Co.",
      "address": "7 Clarence Passage, London N1C 4AG, United Kingdom",
      "postcode": "N1C 4AG",
      "distance": "134m"
    },
    {
      "type": "restaurant",
      "name": "Prezzo",
      "address": "Battle Bridge Place, London, United Kingdom",
      "postcode": null,
      "distance": "141m"
    },
    {
      "type": "restaurant",
      "name": "Giraffe",
      "address": "Battle Bridge Place, London, United Kingdom",
      "postcode": null,
      "distance": "141m"
    },
    {
      "type": "restaurant",
      "name": "Maple & King",
      "address": "1 King's Boulevard, London N1C, United Kingdom",
      "postcode": "N1C",
      "distance": "160m"
    },
    {
      "type": "restaurant",
      "name": "Vinoteca",
      "address": "3 King's Boulevard, London N1C 4BU, United Kingdom",
      "postcode": "N1C 4BU",
      "distance": "161m"
    },
    {
      "type": "restaurant",
      "name": "Drake & Morgan",
      "address": "6 Pancras Road, London N1C 4BJ, United Kingdom",
      "postcode": "N1C 4BJ",
      "distance": "199m"
    },
    {
      "type": "restaurant",
      "name": "British Library restaurant",
      "address": "96 Euston Road, London NW1 2RA, United Kingdom",
      "postcode": "NW1 2RA",
      "distance": "202m"
    },
    {
      "type": "restaurant",
      "name": "Booking Office",
      "address": "Euston Road, London NW1 2QS, United Kingdom",
      "postcode": "NW1 2QS",
      "distance": "214m"
    },
    {
      "type": "restaurant",
      "name": "Mi and Me",
      "address": "Euston Road, London NW1 2QS, United Kingdom",
      "postcode": "NW1 2QS",
      "distance": "219m"
    }
  ],
  "tourism": [
    {
      "type": "tourism",
      "name": "Paradigm",
      "address": "Midland Road, London NW1 2SA, United Kingdom",
      "postcode": "NW1 2SA",
      "distance": "66m"
    },
    {
      "type": "tourism",
      "name": "British Library",
      "address": "96 Euston Road, London NW1 2DB, United Kingdom",
      "postcode": "NW1 2DB",
      "distance": "113m"
    },
    {
      "type": "tourism",
      "name": "IFO (Identified Flying Object)",
      "address": "Battle Bridge Place, London N1C 4BU, United Kingdom",
      "postcode": "N1C 4BU",
      "distance": "125m"
    },
    {
      "type": "tourism",
      "name": "Betjemen Sculpture",
      "address": "Euston Road, London NW1 2QS, United Kingdom",
      "postcode": "NW1 2QS",
      "distance": "157m"
    },
    {
      "type": "tourism",
      "name": "Platform 9¾",
      "address": "Battle Bridge Place, London, United Kingdom",
      "postcode": null,
      "distance": "206m"
    },
    {
      "type": "tourism",
      "name": "The Meeting Place",
      "address": "Euston Road, London NW1 2ST, United Kingdom",
      "postcode": "NW1 2ST",
      "distance": "220m"
    }
  ],
  "supermarket": [
    {
      "type": "supermarket",
      "name": "Marks & Spencer Simply Food",
      "address": "Battle Bridge Place, London, United Kingdom",
      "postcode": null,
      "distance": "160m"
    },
    {
      "type": "supermarket",
      "name": "Little Waitrose",
      "address": "Battle Bridge Place, London, United Kingdom",
      "postcode": null,
      "distance": "202m"
    }
  ]
},

Leeds: {
  "restaurant": [
    {
      "type": "restaurant",
      "name": "PizzaExpress",
      "address": "4 Albion Place, Leeds LS1 6JL, United Kingdom",
      "postcode": "LS1 6JL",
      "distance": "47m"
    },
    {
      "type": "restaurant",
      "name": "Byron",
      "address": "9a Lands Lane, Leeds LS1 6AW, United Kingdom",
      "postcode": "LS1 6AW",
      "distance": "55m"
    },
    {
      "type": "restaurant",
      "name": "Meat Liquor",
      "address": "Commercial Street, Leeds LS1 6AL, United Kingdom",
      "postcode": "LS1 6AL",
      "distance": "56m"
    },
    {
      "type": "restaurant",
      "name": "Bills Restaurant",
      "address": "1 Albion Place, Leeds LS1 6JL, United Kingdom",
      "postcode": "LS1 6JL",
      "distance": "63m"
    },
    {
      "type": "restaurant",
      "name": "Cozy Club",
      "address": "53 Albion Street, Leeds LS1 5AA, United Kingdom",
      "postcode": "LS1 5AA",
      "distance": "75m"
    },
    {
      "type": "restaurant",
      "name": "MOD Pizza",
      "address": "37 Bond Street, Leeds LS1 5BQ, United Kingdom",
      "postcode": "LS1 5BQ",
      "distance": "76m"
    },
    {
      "type": "restaurant",
      "name": "ASK Italian",
      "address": "20-22 Lands Lane, Leeds LS1 6LB, United Kingdom",
      "postcode": "LS1 6LB",
      "distance": "81m"
    },
    {
      "type": "restaurant",
      "name": "Côte Brasserie",
      "address": "Albion Street, Leeds LS1 5AY, United Kingdom",
      "postcode": "LS1 5AY",
      "distance": "102m"
    },
    {
      "type": "restaurant",
      "name": "Comptoir Libanais",
      "address": "Albion Street, Leeds LS1 5AY, United Kingdom",
      "postcode": "LS1 5AY",
      "distance": "102m"
    },
    {
      "type": "restaurant",
      "name": "TGI Friday's",
      "address": "Albion Street, Leeds LS1 5AY, United Kingdom",
      "postcode": "LS1 5AY",
      "distance": "115m"
    },
    {
      "type": "restaurant",
      "name": "Carluccio's",
      "address": "Albion Street, Leeds LS1 5AY, United Kingdom",
      "postcode": "LS1 5AY",
      "distance": "120m"
    },
    {
      "type": "restaurant",
      "name": "Nando's",
      "address": "Albion Street, Leeds LS1 5AY, United Kingdom",
      "postcode": "LS1 5AY",
      "distance": "120m"
    },
    {
      "type": "restaurant",
      "name": "Wasabi",
      "address": "Albion Street, Leeds LS1 5AY, United Kingdom",
      "postcode": "LS1 5AY",
      "distance": "125m"
    },
    {
      "type": "restaurant",
      "name": "Giraffe",
      "address": "Albion Street, Leeds LS1 5AY, United Kingdom",
      "postcode": "LS1 5AY",
      "distance": "135m"
    },
    {
      "type": "restaurant",
      "name": "YO! Sushi",
      "address": "Albion Street, Leeds LS1 5AY, United Kingdom",
      "postcode": "LS1 5AY",
      "distance": "136m"
    },
    {
      "type": "restaurant",
      "name": "Handmade Burger Co.",
      "address": "Albion Street, Leeds LS1 5AY, United Kingdom",
      "postcode": "LS1 5AY",
      "distance": "142m"
    },
    {
      "type": "restaurant",
      "name": "Rosa's Thai Cafe",
      "address": "Albion Street, Leeds LS1 5AY, United Kingdom",
      "postcode": "LS1 5AY",
      "distance": "146m"
    }
  ],
  "supermarket": [
    {
      "type": "supermarket",
      "name": "Sainsbury's",
      "address": "54 Albion Street, Leeds LS1 6AD, United Kingdom",
      "postcode": "LS1 6AD",
      "distance": "55m"
    },
    {
      "type": "supermarket",
      "name": "Tesco Metro",
      "address": "Bond Street, Leeds LS1 5BQ, United Kingdom",
      "postcode": "LS1 5BQ",
      "distance": "134m"
    }
  ],
  "tourism": [
    {
      "type": "tourism",
      "name": "Equus Altus",
      "address": "Bank Street, Leeds LS1 6EA, United Kingdom",
      "postcode": "LS1 6EA",
      "distance": "114m"
    }
  ]
},

Woking: {
  "supermarket": [
    {
      "type": "supermarket",
      "name": "The Hook Hath CO-OP",
      "address": "Wych Hill, Woking GU22 0ES, United Kingdom",
      "postcode": "GU22 0ES",
      "distance": "449m"
    },
    {
      "type": "supermarket",
      "name": "Morrisons",
      "address": "82 Goldsworth Road, Woking GU21 6ND, United Kingdom",
      "postcode": "GU21 6ND",
      "distance": "778m"
    }
  ],
  "tourism": [
    {
      "type": "tourism",
      "name": null,
      "address": "Woking GU22 7NA, United Kingdom",
      "postcode": "GU22 7NA",
      "distance": "976m"
    },
    {
      "type": "tourism",
      "name": null,
      "address": "Woking GU22 7NA, United Kingdom",
      "postcode": "GU22 7NA",
      "distance": "977m"
    },
    {
      "type": "tourism",
      "name": null,
      "address": "Woking GU22 7NA, United Kingdom",
      "postcode": "GU22 7NA",
      "distance": "977m"
    },
    {
      "type": "tourism",
      "name": null,
      "address": "Woking GU22 7NA, United Kingdom",
      "postcode": "GU22 7NA",
      "distance": "977m"
    },
    {
      "type": "tourism",
      "name": null,
      "address": "Woking GU22 7NA, United Kingdom",
      "postcode": "GU22 7NA",
      "distance": "983m"
    },
    {
      "type": "tourism",
      "name": null,
      "address": "Woking GU22 7NA, United Kingdom",
      "postcode": "GU22 7NA",
      "distance": "986m"
    },
    {
      "type": "tourism",
      "name": null,
      "address": "Woking GU22 7NA, United Kingdom",
      "postcode": "GU22 7NA",
      "distance": "988m"
    }
  ],
  "restaurant": [
    {
      "type": "restaurant",
      "name": "The Guru",
      "address": "Vicarage Road, Woking GU22 9EJ, United Kingdom",
      "postcode": "GU22 9EJ",
      "distance": "997m"
    },
    {
      "type": "restaurant",
      "name": "Zizzi",
      "address": "Goldsworth Road, Woking GU21 6AS, United Kingdom",
      "postcode": "GU21 6AS",
      "distance": "1065m"
    },
    {
      "type": "restaurant",
      "name": "Papa John's",
      "address": "Goldsworth Road, Woking GU21 6LE, United Kingdom",
      "postcode": "GU21 6LE",
      "distance": "1080m"
    },
    {
      "type": "restaurant",
      "name": "Pizza Express",
      "address": "65 Goldsworth Road, Woking GU21 6LJ, United Kingdom",
      "postcode": "GU21 6LJ",
      "distance": "1084m"
    },
    {
      "type": "restaurant",
      "name": "Soya",
      "address": "Goldsworth Road, Woking GU21 6DD, United Kingdom",
      "postcode": "GU21 6DD",
      "distance": "1213m"
    },
    {
      "type": "restaurant",
      "name": "Sokury",
      "address": "Goldsworth Road, Woking GU21 6DD, United Kingdom",
      "postcode": "GU21 6DD",
      "distance": "1218m"
    },
    {
      "type": "restaurant",
      "name": "Cattle",
      "address": "21 High Street, Woking GU21 6BW, United Kingdom",
      "postcode": "GU21 6BW",
      "distance": "1339m"
    },
    {
      "type": "restaurant",
      "name": "L'Aroma",
      "address": "16 High Street, Woking GU21 6BW, United Kingdom",
      "postcode": "GU21 6BW",
      "distance": "1373m"
    },
    {
      "type": "restaurant",
      "name": "araceli's",
      "address": "16 Commercial Way, Woking GU21 6ET, United Kingdom",
      "postcode": "GU21 6ET",
      "distance": "1374m"
    },
    {
      "type": "restaurant",
      "name": "Las Iguanas",
      "address": "21 - 25 Commercial Way, Woking GU21 6XR, United Kingdom",
      "postcode": "GU21 6XR",
      "distance": "1390m"
    },
    {
      "type": "restaurant",
      "name": "Bill's",
      "address": "27 Commercial Way, Woking GU21 6XR, United Kingdom",
      "postcode": "GU21 6XR",
      "distance": "1396m"
    }
  ]
}
]